{"type": "FeatureCollection", "features": [ {"type": "Feature", "properties": {"norad_id": 38953, "name": "BEIDOU-2 G6 (C02)", "group": "beidou", "lat": -1.7841965662052617, "lon": 48.388799674276726, "alt_km": 35761.03535104686, "timestamp": "2025-12-18T15:47:11.488191+00:00", "meta": {"OBJECT_NAME": "BEIDOU-2 G6 (C02)", "OBJECT_ID": "2012-059A", "EPOCH": "2025-12-17T23:55:21.927648", "MEAN_MOTION": 1.00269401, "ECCENTRICITY": 0.00081896, "INCLINATION": 3.9621, "RA_OF_ASC_NODE": 75.4554, "ARG_OF_PERICENTER": 291.8259, "MEAN_ANOMALY": 162.3957, "EPHEMERIS_TYPE": 0, "CLASSIFICATION_TYPE": "U", "NORAD_CAT_ID": 38953, "ELEMENT_SET_NO": 999, "REV_AT_EPOCH": 4809, "BSTAR": 0, "MEAN_MOTION_DOT": -1.53e-06, "MEAN_MOTION_DDOT": 0}, "tle": {"line1": "1 38953U 12059A   25351.99678157 -.00000153  00000+0  00000+0 0  9991", "line2": "2 38953   3.9621  75.4554 0008189 291.8259 162.3957  1.00269401 48090"}}, "geometry": {"type": "Point", "coordinates": [48.388799674276726, -1.7841965662052617]}}, {"type": "Feature", "properties": {"norad_id": 40549, "name": "BEIDOU-3S IGSO-1S (C31)", "group": "beidou", "lat": 40.86707512196047, "lon": 70.100478488064, "alt_km": 35730.344536110875, "timestamp": "2025-12-18T15:47:11.488203+00:00", "meta": {"OBJECT_NAME": "BEIDOU-3S IGSO-1S (C31)", "OBJECT_ID": "2015-019A", "EPOCH": "2025-12-16T22:00:09.125856", "MEAN_MOTION": 1.00292577, "ECCENTRICITY": 0.00363578, "INCLINATION": 49.5427, "RA_OF_ASC_NODE": 297.6612, "ARG_OF_PERICENTER": 193.8033, "MEAN_ANOMALY": 18.6613, "EPHEMERIS_TYPE": 0, "CLASSIFICATION_TYPE": "U", "NORAD_CAT_ID": 40549, "ELEMENT_SET_NO": 999, "REV_AT_EPOCH": 3924, "BSTAR": 0, "MEAN_MOTION_DOT": -1.91e-06, "MEAN_MOTION_DDOT": 0}, "tle": {"line1": "1 40549U 15019A   25350.91677229 -.00000191  00000+0  00000+0 0  9996", "line2": "2 40549  49.5427 297.6612 0036357 193.8033  18.6613  1.00292577 39245"}}, "geometry": {"type": "Point", "coordinates": [70.100478488064, 40.86707512196047]}}, {"type": "Feature", "properties": {"norad_id": 40748, "name": "BEIDOU-3S M2S (C58)", "group": "beidou", "lat": -9.896408595244864, "lon": 135.2427678847445, "alt_km": 21521.414550325277, "timestamp": "2025-12-18T15:47:11.488220+00:00", "meta": {"OBJECT_NAME": "BEIDOU-3S M2S (C58)", "OBJECT_ID": "2015-037A", "EPOCH": "2025-12-11T22:15:26.437248", "MEAN_MOTION": 1.8622897, "ECCENTRICITY": 0.00123447, "INCLINATION": 55.0397, "RA_OF_ASC_NODE": 308.4912, "ARG_OF_PERICENTER": 267.8245, "MEAN_ANOMALY": 92.025, "EPHEMERIS_TYPE": 0, "CLASSIFICATION_TYPE": "U", "NORAD_CAT_ID": 40748, "ELEMENT_SET_NO": 999, "REV_AT_EPOCH": 7063, "BSTAR": 0, "MEAN_MOTION_DOT": -8.9e-07, "MEAN_MOTION_DDOT": 0}, "tle": {"line1": "1 40748U 15037A   25345.92738932 -.00000089  00000+0  00000+0 0  9997", "line2": "2 40748  55.0397 308.4912 0012344 267.8245  92.0250  1.86228970 70636"}}, "geometry": {"type": "Point", "coordinates": [135.2427678847445, -9.896408595244864]}}, {"type": "Feature", "properties": {"norad_id": 40749, "name": "BEIDOU-3S M1S (C57)", "group": "beidou", "lat": 30.72690888912384, "lon": -27.213471842802793, "alt_km": 21514.16939296423, "timestamp": "2025-12-18T15:47:11.488232+00:00", "meta": {"OBJECT_NAME": "BEIDOU-3S M1S (C57)", "OBJECT_ID": "2015-037B", "EPOCH": "2025-12-18T01:31:18.410592", "MEAN_MOTION": 1.86254045, "ECCENTRICITY": 0.00035849, "INCLINATION": 55.0306, "RA_OF_ASC_NODE": 308.2705, "ARG_OF_PERICENTER": 0.3009, "MEAN_ANOMALY": 359.6859, "EPHEMERIS_TYPE": 0, "CLASSIFICATION_TYPE": "U", "NORAD_CAT_ID": 40749, "ELEMENT_SET_NO": 999, "REV_AT_EPOCH": 7075, "BSTAR": 0, "MEAN_MOTION_DOT": -8.6e-07, "MEAN_MOTION_DDOT": 0}, "tle": {"line1": "1 40749U 15037B   25352.06340753 -.00000086  00000+0  00000+0 0  9998", "line2": "2 40749  55.0306 308.2705 0003584   0.3009 359.6859  1.86254045 70751"}}, "geometry": {"type": "Point", "coordinates": [-27.213471842802793, 30.72690888912384]}}, {"type": "Feature", "properties": {"norad_id": 40938, "name": "BEIDOU-3S IGSO-2S (C56)", "group": "beidou", "lat": 15.900428385248645, "lon": 66.87311355196638, "alt_km": 35562.87930750309, "timestamp": "2025-12-18T15:47:11.488244+00:00", "meta": {"OBJECT_NAME": "BEIDOU-3S IGSO-2S (C56)", "OBJECT_ID": "2015-053A", "EPOCH": "2025-12-17T17:12:22.751136", "MEAN_MOTION": 1.00269192, "ECCENTRICITY": 0.00604784, "INCLINATION": 49.5029, "RA_OF_ASC_NODE": 260.9465, "ARG_OF_PERICENTER": 188.653, "MEAN_ANOMALY": 351.012, "EPHEMERIS_TYPE": 0, "CLASSIFICATION_TYPE": "U", "NORAD_CAT_ID": 40938, "ELEMENT_SET_NO": 999, "REV_AT_EPOCH": 3753, "BSTAR": 0, "MEAN_MOTION_DOT": -1.26e-06, "MEAN_MOTION_DDOT": 0}, "tle": {"line1": "1 40938U 15053A   25351.71692999 -.00000126  00000+0  00000+0 0  9994", "line2": "2 40938  49.5029 260.9465 0060478 188.6530 351.0120  1.00269192 37533"}}, "geometry": {"type": "Point", "coordinates": [66.87311355196638, 15.900428385248645]}}, {"type": "Feature", "properties": {"norad_id": 41434, "name": "BEIDOU-2 IGSO-6 (C13)", "group": "beidou", "lat": 15.567088480098592, "lon": 49.140394173126914, "alt_km": 35997.38259760879, "timestamp": "2025-12-18T15:47:11.488255+00:00", "meta": {"OBJECT_NAME": "BEIDOU-2 IGSO-6 (C13)", "OBJECT_ID": "2016-021A", "EPOCH": "2025-12-11T15:29:12.615360", "MEAN_MOTION": 1.00293077, "ECCENTRICITY": 0.00608616, "INCLINATION": 59.9644, "RA_OF_ASC_NODE": 39.9082, "ARG_OF_PERICENTER": 229.9753, "MEAN_ANOMALY": 135.9177, "EPHEMERIS_TYPE": 0, "CLASSIFICATION_TYPE": "U", "NORAD_CAT_ID": 41434, "ELEMENT_SET_NO": 999, "REV_AT_EPOCH": 3560, "BSTAR": 0, "MEAN_MOTION_DOT": -1.62e-06, "MEAN_MOTION_DDOT": 0}, "tle": {"line1": "1 41434U 16021A   25345.64528490 -.00000162  00000+0  00000+0 0  9991", "line2": "2 41434  59.9644  39.9082 0060861 229.9753 135.9177  1.00293077 35600"}}, "geometry": {"type": "Point", "coordinates": [49.140394173126914, 15.567088480098592]}}, {"type": "Feature", "properties": {"norad_id": 41586, "name": "BEIDOU-2 G7 (C03)", "group": "beidou", "lat": 0.2406923326361912, "lon": 74.75796258050416, "alt_km": 35764.27973402834, "timestamp": "2025-12-18T15:47:11.488268+00:00", "meta": {"OBJECT_NAME": "BEIDOU-2 G7 (C03)", "OBJECT_ID": "2016-037A", "EPOCH": "2025-12-18T01:50:09.134304", "MEAN_MOTION": 1.00272738, "ECCENTRICITY": 0.0005106, "INCLINATION": 1.7698, "RA_OF_ASC_NODE": 67.8228, "ARG_OF_PERICENTER": 3.2684, "MEAN_ANOMALY": 153.8419, "EPHEMERIS_TYPE": 0, "CLASSIFICATION_TYPE": "U", "NORAD_CAT_ID": 41586, "ELEMENT_SET_NO": 999, "REV_AT_EPOCH": 507, "BSTAR": 0, "MEAN_MOTION_DOT": -3.3e-06, "MEAN_MOTION_DDOT": 0}, "tle": {"line1": "1 41586U 16037A   25352.07649461 -.00000330  00000+0  00000+0 0  9990", "line2": "2 41586   1.7698  67.8228 0005106   3.2684 153.8419  1.00272738  5078"}}, "geometry": {"type": "Point", "coordinates": [74.75796258050416, 0.2406923326361912]}}, {"type": "Feature", "properties": {"norad_id": 43001, "name": "BEIDOU-3 M1 (C19)", "group": "beidou", "lat": -31.794819441229563, "lon": 44.883508323016805, "alt_km": 21507.136742362884, "timestamp": "2025-12-18T15:47:11.488280+00:00", "meta": {"OBJECT_NAME": "BEIDOU-3 M1 (C19)", "OBJECT_ID": "2017-069A", "EPOCH": "2025-12-17T15:24:44.433216", "MEAN_MOTION": 1.86231367, "ECCENTRICITY": 0.00094147, "INCLINATION": 56.5313, "RA_OF_ASC_NODE": 69.0717, "ARG_OF_PERICENTER": 302.6799, "MEAN_ANOMALY": 57.2556, "EPHEMERIS_TYPE": 0, "CLASSIFICATION_TYPE": "U", "NORAD_CAT_ID": 43001, "ELEMENT_SET_NO": 999, "REV_AT_EPOCH": 5522, "BSTAR": 0, "MEAN_MOTION_DOT": -7e-07, "MEAN_MOTION_DDOT": 0}, "tle": {"line1": "1 43001U 17069A   25351.64218094 -.00000070  00000+0  00000+0 0  9997", "line2": "2 43001  56.5313  69.0717 0009414 302.6799  57.2556  1.86231367 55228"}}, "geometry": {"type": "Point", "coordinates": [44.883508323016805, -31.794819441229563]}}, {"type": "Feature", "properties": {"norad_id": 43002, "name": "BEIDOU-3 M2 (C20)", "group": "beidou", "lat": 1.8483986543892281, "lon": 70.3095305319087, "alt_km": 21512.7084145611, "timestamp": "2025-12-18T15:47:11.488290+00:00", "meta": {"OBJECT_NAME": "BEIDOU-3 M2 (C20)", "OBJECT_ID": "2017-069B", "EPOCH": "2025-12-18T02:49:13.033344", "MEAN_MOTION": 1.86230976, "ECCENTRICITY": 0.00064664, "INCLINATION": 56.5314, "RA_OF_ASC_NODE": 69.092, "ARG_OF_PERICENTER": 330.9004, "MEAN_ANOMALY": 29.0919, "EPHEMERIS_TYPE": 0, "CLASSIFICATION_TYPE": "U", "NORAD_CAT_ID": 43002, "ELEMENT_SET_NO": 999, "REV_AT_EPOCH": 5522, "BSTAR": 0, "MEAN_MOTION_DOT": -6.6e-07, "MEAN_MOTION_DDOT": 0}, "tle": {"line1": "1 43002U 17069B   25352.11751196 -.00000066  00000+0  00000+0 0  9991", "line2": "2 43002  56.5314  69.0920 0006466 330.9004  29.0919  1.86230976 55228"}}, "geometry": {"type": "Point", "coordinates": [70.3095305319087, 1.8483986543892281]}}, {"type": "Feature", "properties": {"norad_id": 43107, "name": "BEIDOU-3 M7 (C27)", "group": "beidou", "lat": 4.334545310179029, "lon": 125.48452739120893, "alt_km": 21529.57025056733, "timestamp": "2025-12-18T15:47:11.488301+00:00", "meta": {"OBJECT_NAME": "BEIDOU-3 M7 (C27)", "OBJECT_ID": "2018-003A", "EPOCH": "2025-12-17T07:45:51.117120", "MEAN_MOTION": 1.86232475, "ECCENTRICITY": 0.00027428, "INCLINATION": 54.4925, "RA_OF_ASC_NODE": 308.6547, "ARG_OF_PERICENTER": 69.5375, "MEAN_ANOMALY": 290.4783, "EPHEMERIS_TYPE": 0, "CLASSIFICATION_TYPE": "U", "NORAD_CAT_ID": 43107, "ELEMENT_SET_NO": 999, "REV_AT_EPOCH": 5396, "BSTAR": 0, "MEAN_MOTION_DOT": -9.2e-07, "MEAN_MOTION_DDOT": 0}, "tle": {"line1": "1 43107U 18003A   25351.32350830 -.00000092  00000+0  00000+0 0  9997", "line2": "2 43107  54.4925 308.6547 0002742  69.5375 290.4783  1.86232475 53963"}}, "geometry": {"type": "Point", "coordinates": [125.48452739120893, 4.334545310179029]}}]}